CCSDS_OMM_VERS = 2.0
CREATION_DATE  = 
ORIGINATOR     = 

OBJECT_NAME    = SL-8 R/B
OBJECT_ID      = 1992-008B
CENTER_NAME    = EARTH
REF_FRAME      = TEME
TIME_SYSTEM    = UTC
MEAN_ELEMENT_THEORY = SGP/SGP4

EPOCH          = 2026-04-01T05:07:49.798848
MEAN_MOTION    = 13.75969653
ECCENTRICITY   = .0035888
INCLINATION    = 82.9238
RA_OF_ASC_NODE = 251.0184
ARG_OF_PERICENTER = 72.6071
MEAN_ANOMALY   = 99.4282

EPHEMERIS_TYPE = 0
CLASSIFICATION_TYPE = U
NORAD_CAT_ID   = 21876
ELEMENT_SET_NO = 999
REV_AT_EPOCH   = 71251
BSTAR          = -.73004E-5
MEAN_MOTION_DOT = .8E-7
MEAN_MOTION_DDOT = 0

CCSDS_OMM_VERS = 2.0
CREATION_DATE  = 
ORIGINATOR     = 

OBJECT_NAME    = SL-8 R/B
OBJECT_ID      = 1992-020B
CENTER_NAME    = EARTH
REF_FRAME      = TEME
TIME_SYSTEM    = UTC
MEAN_ELEMENT_THEORY = SGP/SGP4

EPOCH          = 2026-04-01T04:00:53.180352
MEAN_MOTION    = 13.75550643
ECCENTRICITY   = .0027888
INCLINATION    = 82.9297
RA_OF_ASC_NODE = 137.0718
ARG_OF_PERICENTER = 233.1290
MEAN_ANOMALY   = 181.3069

EPHEMERIS_TYPE = 0
CLASSIFICATION_TYPE = U
NORAD_CAT_ID   = 21938
ELEMENT_SET_NO = 999
REV_AT_EPOCH   = 70422
BSTAR          = .31307E-4
MEAN_MOTION_DOT = .45E-6
MEAN_MOTION_DDOT = 0

CCSDS_OMM_VERS = 2.0
CREATION_DATE  = 
ORIGINATOR     = 

OBJECT_NAME    = USA 81
OBJECT_ID      = 1992-023A
CENTER_NAME    = EARTH
REF_FRAME      = TEME
TIME_SYSTEM    = UTC
MEAN_ELEMENT_THEORY = SGP/SGP4

EPOCH          = 2026-04-01T03:40:13.556352
MEAN_MOTION    = 14.32375406
ECCENTRICITY   = .0001645
INCLINATION    = 85.0043
RA_OF_ASC_NODE = 118.4769
ARG_OF_PERICENTER = 68.6872
MEAN_ANOMALY   = 291.4496

EPHEMERIS_TYPE = 0
CLASSIFICATION_TYPE = U
NORAD_CAT_ID   = 21949
ELEMENT_SET_NO = 999
REV_AT_EPOCH   = 9800
BSTAR          = .75992E-4
MEAN_MOTION_DOT = .225E-5
MEAN_MOTION_DDOT = 0

CCSDS_OMM_VERS = 2.0
CREATION_DATE  = 
ORIGINATOR     = 

OBJECT_NAME    = COSMOS 2219
OBJECT_ID      = 1992-076A
CENTER_NAME    = EARTH
REF_FRAME      = TEME
TIME_SYSTEM    = UTC
MEAN_ELEMENT_THEORY = SGP/SGP4

EPOCH          = 2026-04-01T03:46:19.796448
MEAN_MOTION    = 14.14089614
ECCENTRICITY   = .0017774
INCLINATION    = 71.0614
RA_OF_ASC_NODE = 331.1053
ARG_OF_PERICENTER = 173.5050
MEAN_ANOMALY   = 186.6307

EPHEMERIS_TYPE = 0
CLASSIFICATION_TYPE = U
NORAD_CAT_ID   = 22219
ELEMENT_SET_NO = 999
REV_AT_EPOCH   = 72155
BSTAR          = -.89199E-4
MEAN_MOTION_DOT = -.217E-5
MEAN_MOTION_DDOT = 0

CCSDS_OMM_VERS = 2.0
CREATION_DATE  = 
ORIGINATOR     = 

OBJECT_NAME    = SL-16 R/B
OBJECT_ID      = 1992-076B
CENTER_NAME    = EARTH
REF_FRAME      = TEME
TIME_SYSTEM    = UTC
MEAN_ELEMENT_THEORY = SGP/SGP4

EPOCH          = 2026-04-01T05:12:40.851936
MEAN_MOTION    = 14.16863143
ECCENTRICITY   = .0010799
INCLINATION    = 70.9990
RA_OF_ASC_NODE = 140.9235
ARG_OF_PERICENTER = 54.5263
MEAN_ANOMALY   = 2.9639

EPHEMERIS_TYPE = 0
CLASSIFICATION_TYPE = U
NORAD_CAT_ID   = 22220
ELEMENT_SET_NO = 999
REV_AT_EPOCH   = 72502
BSTAR          = -.77609E-4
MEAN_MOTION_DOT = -.204E-5
MEAN_MOTION_DDOT = 0

CCSDS_OMM_VERS = 2.0
CREATION_DATE  = 
ORIGINATOR     = 

OBJECT_NAME    = COSMOS 2221
OBJECT_ID      = 1992-080A
CENTER_NAME    = EARTH
REF_FRAME      = TEME
TIME_SYSTEM    = UTC
MEAN_ELEMENT_THEORY = SGP/SGP4

EPOCH          = 2026-04-01T04:11:16.943424
MEAN_MOTION    = 14.96296752
ECCENTRICITY   = .0015618
INCLINATION    = 82.5006
RA_OF_ASC_NODE = 257.5359
ARG_OF_PERICENTER = 115.1100
MEAN_ANOMALY   = 245.1745

EPHEMERIS_TYPE = 0
CLASSIFICATION_TYPE = U
NORAD_CAT_ID   = 22236
ELEMENT_SET_NO = 999
REV_AT_EPOCH   = 78415
BSTAR          = .18885E-3
MEAN_MOTION_DOT = .2164E-4
MEAN_MOTION_DDOT = 0

CCSDS_OMM_VERS = 2.0
CREATION_DATE  = 
ORIGINATOR     = 

OBJECT_NAME    = SL-16 R/B
OBJECT_ID      = 1992-093B
CENTER_NAME    = EARTH
REF_FRAME      = TEME
TIME_SYSTEM    = UTC
MEAN_ELEMENT_THEORY = SGP/SGP4

EPOCH          = 2026-04-01T01:42:34.556256
MEAN_MOTION    = 14.15455812
ECCENTRICITY   = .0006583
INCLINATION    = 71.0226
RA_OF_ASC_NODE = 317.2836
ARG_OF_PERICENTER = 272.1865
MEAN_ANOMALY   = 87.8504

EPHEMERIS_TYPE = 0
CLASSIFICATION_TYPE = U
NORAD_CAT_ID   = 22285
ELEMENT_SET_NO = 999
REV_AT_EPOCH   = 71632
BSTAR          = .56891E-4
MEAN_MOTION_DOT = .64E-6
MEAN_MOTION_DDOT = 0

CCSDS_OMM_VERS = 2.0
CREATION_DATE  = 
ORIGINATOR     = 

OBJECT_NAME    = COSMOS 2228
OBJECT_ID      = 1992-094A
CENTER_NAME    = EARTH
REF_FRAME      = TEME
TIME_SYSTEM    = UTC
MEAN_ELEMENT_THEORY = SGP/SGP4

EPOCH          = 2026-04-01T04:13:10.534368
MEAN_MOTION    = 14.97309631
ECCENTRICITY   = .0017063
INCLINATION    = 82.5193
RA_OF_ASC_NODE = 215.7808
ARG_OF_PERICENTER = 222.8506
MEAN_ANOMALY   = 137.1387

EPHEMERIS_TYPE = 0
CLASSIFICATION_TYPE = U
NORAD_CAT_ID   = 22286
ELEMENT_SET_NO = 999
REV_AT_EPOCH   = 77942
BSTAR          = .23973E-3
MEAN_MOTION_DOT = .2813E-4
MEAN_MOTION_DDOT = 0

CCSDS_OMM_VERS = 2.0
CREATION_DATE  = 
ORIGINATOR     = 

OBJECT_NAME    = SL-16 R/B
OBJECT_ID      = 1993-016B
CENTER_NAME    = EARTH
REF_FRAME      = TEME
TIME_SYSTEM    = UTC
MEAN_ELEMENT_THEORY = SGP/SGP4

EPOCH          = 2026-04-01T04:25:47.591904
MEAN_MOTION    = 14.15306446
ECCENTRICITY   = .0012346
INCLINATION    = 71.0074
RA_OF_ASC_NODE = 167.9389
ARG_OF_PERICENTER = 285.1911
MEAN_ANOMALY   = 74.7846

EPHEMERIS_TYPE = 0
CLASSIFICATION_TYPE = U
NORAD_CAT_ID   = 22566
ELEMENT_SET_NO = 999
REV_AT_EPOCH   = 70535
BSTAR          = .12407E-3
MEAN_MOTION_DOT = .194E-5
MEAN_MOTION_DDOT = 0

CCSDS_OMM_VERS = 2.0
CREATION_DATE  = 
ORIGINATOR     = 

OBJECT_NAME    = COSMOS 2242
OBJECT_ID      = 1993-024A
CENTER_NAME    = EARTH
REF_FRAME      = TEME
TIME_SYSTEM    = UTC
MEAN_ELEMENT_THEORY = SGP/SGP4

EPOCH          = 2026-04-01T04:01:35.028192
MEAN_MOTION    = 14.96647866
ECCENTRICITY   = .001527
INCLINATION    = 82.5168
RA_OF_ASC_NODE = 245.2097
ARG_OF_PERICENTER = 226.3073
MEAN_ANOMALY   = 133.6885

EPHEMERIS_TYPE = 0
CLASSIFICATION_TYPE = U
NORAD_CAT_ID   = 22626
ELEMENT_SET_NO = 999
REV_AT_EPOCH   = 78375
BSTAR          = .23974E-3
MEAN_MOTION_DOT = .2764E-4
MEAN_MOTION_DDOT = 0

CCSDS_OMM_VERS = 2.0
CREATION_DATE  = 
ORIGINATOR     = 

OBJECT_NAME    = SL-16 R/B
OBJECT_ID      = 1993-059B
CENTER_NAME    = EARTH
REF_FRAME      = TEME
TIME_SYSTEM    = UTC
MEAN_ELEMENT_THEORY = SGP/SGP4

EPOCH          = 2026-04-01T01:30:32.163264
MEAN_MOTION    = 14.17234444
ECCENTRICITY   = .001724
INCLINATION    = 70.9912
RA_OF_ASC_NODE = 323.9489
ARG_OF_PERICENTER = 183.7702
MEAN_ANOMALY   = 176.3295

EPHEMERIS_TYPE = 0
CLASSIFICATION_TYPE = U
NORAD_CAT_ID   = 22803
ELEMENT_SET_NO = 999
REV_AT_EPOCH   = 68270
BSTAR          = -.32747E-4
MEAN_MOTION_DOT = -.114E-5
MEAN_MOTION_DDOT = 0

CCSDS_OMM_VERS = 2.0
CREATION_DATE  = 
ORIGINATOR     = 

OBJECT_NAME    = ARIANE 40 R/B
OBJECT_ID      = 1993-061H
CENTER_NAME    = EARTH
REF_FRAME      = TEME
TIME_SYSTEM    = UTC
MEAN_ELEMENT_THEORY = SGP/SGP4

EPOCH          = 2026-04-01T04:24:50.450400
MEAN_MOTION    = 14.32872879
ECCENTRICITY   = .0010187
INCLINATION    = 98.4875
RA_OF_ASC_NODE = 159.6232
ARG_OF_PERICENTER = 211.9108
MEAN_ANOMALY   = 148.1460

EPHEMERIS_TYPE = 0
CLASSIFICATION_TYPE = U
NORAD_CAT_ID   = 22830
ELEMENT_SET_NO = 999
REV_AT_EPOCH   = 69732
BSTAR          = .96423E-4
MEAN_MOTION_DOT = .22E-5
MEAN_MOTION_DDOT = 0

CCSDS_OMM_VERS = 2.0
CREATION_DATE  = 
ORIGINATOR     = 

OBJECT_NAME    = COSMOS 2278
OBJECT_ID      = 1994-023A
CENTER_NAME    = EARTH
REF_FRAME      = TEME
TIME_SYSTEM    = UTC
MEAN_ELEMENT_THEORY = SGP/SGP4

EPOCH          = 2026-04-01T03:48:19.094112
MEAN_MOTION    = 14.14374834
ECCENTRICITY   = .0009262
INCLINATION    = 71.0509
RA_OF_ASC_NODE = 128.0911
ARG_OF_PERICENTER = 339.4149
MEAN_ANOMALY   = 20.6599

EPHEMERIS_TYPE = 0
CLASSIFICATION_TYPE = U
NORAD_CAT_ID   = 23087
ELEMENT_SET_NO = 999
REV_AT_EPOCH   = 64798
BSTAR          = -.27904E-4
MEAN_MOTION_DOT = -.101E-5
MEAN_MOTION_DDOT = 0

CCSDS_OMM_VERS = 2.0
CREATION_DATE  = 
ORIGINATOR     = 

OBJECT_NAME    = SL-16 R/B
OBJECT_ID      = 1994-023B
CENTER_NAME    = EARTH
REF_FRAME      = TEME
TIME_SYSTEM    = UTC
MEAN_ELEMENT_THEORY = SGP/SGP4

EPOCH          = 2026-04-01T04:40:41.196000
MEAN_MOTION    = 14.15017770
ECCENTRICITY   = .0005517
INCLINATION    = 71.0026
RA_OF_ASC_NODE = 23.6224
ARG_OF_PERICENTER = 265.3882
MEAN_ANOMALY   = 94.6611

EPHEMERIS_TYPE = 0
CLASSIFICATION_TYPE = U
NORAD_CAT_ID   = 23088
ELEMENT_SET_NO = 999
REV_AT_EPOCH   = 64927
BSTAR          = .16252E-3
MEAN_MOTION_DOT = .267E-5
MEAN_MOTION_DDOT = 0

CCSDS_OMM_VERS = 2.0
CREATION_DATE  = 
ORIGINATOR     = 

OBJECT_NAME    = SL-16 R/B
OBJECT_ID      = 1994-074B
CENTER_NAME    = EARTH
REF_FRAME      = TEME
TIME_SYSTEM    = UTC
MEAN_ELEMENT_THEORY = SGP/SGP4

EPOCH          = 2026-04-01T02:44:27.910752
MEAN_MOTION    = 14.79434002
ECCENTRICITY   = .0007509
INCLINATION    = 97.7075
RA_OF_ASC_NODE = 121.0207
ARG_OF_PERICENTER = 138.9765
MEAN_ANOMALY   = 288.1315

EPHEMERIS_TYPE = 0
CLASSIFICATION_TYPE = U
NORAD_CAT_ID   = 23343
ELEMENT_SET_NO = 999
REV_AT_EPOCH   = 69056
BSTAR          = .92281E-4
MEAN_MOTION_DOT = .64E-5
MEAN_MOTION_DDOT = 0

